[{"OBJECT_NAME":"OCO 2","OBJECT_ID":"2014-035A","EPOCH":"2026-02-01T21:02:26.333952","MEAN_MOTION":14.57130013,"ECCENTRICITY":0.00015623,"INCLINATION":98.2273,"RA_OF_ASC_NODE":336.1779,"ARG_OF_PERICENTER":74.8096,"MEAN_ANOMALY":285.3275,"EPHEMERIS_TYPE":0,"CLASSIFICATION_TYPE":"U","NORAD_CAT_ID":40059,"ELEMENT_SET_NO":999,"REV_AT_EPOCH":61634,"BSTAR":0.00013810064,"MEAN_MOTION_DOT":5.77e-6,"MEAN_MOTION_DDOT":0},{"OBJECT_NAME":"BRITE-PL2 (HEWELIUSZ)","OBJECT_ID":"2014-049B","EPOCH":"2026-02-01T20:13:52.421376","MEAN_MOTION":14.93973463,"ECCENTRICITY":0.00139481,"INCLINATION":97.8981,"RA_OF_ASC_NODE":143.9745,"ARG_OF_PERICENTER":193.5867,"MEAN_ANOMALY":166.498,"EPHEMERIS_TYPE":0,"CLASSIFICATION_TYPE":"U","NORAD_CAT_ID":40119,"ELEMENT_SET_NO":999,"REV_AT_EPOCH":62123,"BSTAR":0.00026635224,"MEAN_MOTION_DOT":2.783e-5,"MEAN_MOTION_DDOT":0},{"OBJECT_NAME":"MMS 1","OBJECT_ID":"2015-011A","EPOCH":"2026-02-02T00:00:02.000160","MEAN_MOTION":0.2833548,"ECCENTRICITY":0.84499189,"INCLINATION":70.3087,"RA_OF_ASC_NODE":350.6479,"ARG_OF_PERICENTER":164.587,"MEAN_ANOMALY":189.5928,"EPHEMERIS_TYPE":0,"CLASSIFICATION_TYPE":"U","NORAD_CAT_ID":40482,"ELEMENT_SET_NO":999,"REV_AT_EPOCH":137,"BSTAR":0,"MEAN_MOTION_DOT":-2.107e-5,"MEAN_MOTION_DDOT":0},{"OBJECT_NAME":"MMS 2","OBJECT_ID":"2015-011B","EPOCH":"2026-02-02T00:00:02.000160","MEAN_MOTION":0.28335472,"ECCENTRICITY":0.84514929,"INCLINATION":70.3052,"RA_OF_ASC_NODE":350.639,"ARG_OF_PERICENTER":164.6032,"MEAN_ANOMALY":189.5578,"EPHEMERIS_TYPE":0,"CLASSIFICATION_TYPE":"U","NORAD_CAT_ID":40483,"ELEMENT_SET_NO":999,"REV_AT_EPOCH":137,"BSTAR":0,"MEAN_MOTION_DOT":-2.107e-5,"MEAN_MOTION_DDOT":0},{"OBJECT_NAME":"MMS 3","OBJECT_ID":"2015-011C","EPOCH":"2026-02-02T00:00:02.000160","MEAN_MOTION":0.28335978,"ECCENTRICITY":0.84514677,"INCLINATION":70.3129,"RA_OF_ASC_NODE":350.6548,"ARG_OF_PERICENTER":164.5996,"MEAN_ANOMALY":189.5511,"EPHEMERIS_TYPE":0,"CLASSIFICATION_TYPE":"U","NORAD_CAT_ID":40484,"ELEMENT_SET_NO":999,"REV_AT_EPOCH":137,"BSTAR":0,"MEAN_MOTION_DOT":-2.107e-5,"MEAN_MOTION_DDOT":0},{"OBJECT_NAME":"MMS 4","OBJECT_ID":"2015-011D","EPOCH":"2026-02-02T00:00:02.000160","MEAN_MOTION":0.28335451,"ECCENTRICITY":0.8452646,"INCLINATION":70.3119,"RA_OF_ASC_NODE":350.6467,"ARG_OF_PERICENTER":164.5853,"MEAN_ANOMALY":189.5889,"EPHEMERIS_TYPE":0,"CLASSIFICATION_TYPE":"U","NORAD_CAT_ID":40485,"ELEMENT_SET_NO":999,"REV_AT_EPOCH":137,"BSTAR":0,"MEAN_MOTION_DOT":-2.108e-5,"MEAN_MOTION_DDOT":0},{"OBJECT_NAME":"ASTROSAT","OBJECT_ID":"2015-052A","EPOCH":"2026-02-01T01:14:12.819264","MEAN_MOTION":14.82182362,"ECCENTRICITY":0.00087916,"INCLINATION":5.9981,"RA_OF_ASC_NODE":55.0504,"ARG_OF_PERICENTER":252.305,"MEAN_ANOMALY":107.6118,"EPHEMERIS_TYPE":0,"CLASSIFICATION_TYPE":"U","NORAD_CAT_ID":40930,"ELEMENT_SET_NO":999,"REV_AT_EPOCH":55959,"BSTAR":0.00017678597,"MEAN_MOTION_DOT":2.113e-5,"MEAN_MOTION_DDOT":0},{"OBJECT_NAME":"DAMPE","OBJECT_ID":"2015-078A","EPOCH":"2026-02-01T23:17:20.688576","MEAN_MOTION":15.30364047,"ECCENTRICITY":0.0011616,"INCLINATION":97.456,"RA_OF_ASC_NODE":37.8057,"ARG_OF_PERICENTER":187.9825,"MEAN_ANOMALY":172.1232,"EPHEMERIS_TYPE":0,"CLASSIFICATION_TYPE":"U","NORAD_CAT_ID":41173,"ELEMENT_SET_NO":999,"REV_AT_EPOCH":56386,"BSTAR":6.0611021e-5,"MEAN_MOTION_DOT":1.705e-5,"MEAN_MOTION_DDOT":0},{"OBJECT_NAME":"PISAT","OBJECT_ID":"2016-059B","EPOCH":"2026-02-01T22:07:41.784960","MEAN_MOTION":14.68671864,"ECCENTRICITY":0.00277076,"INCLINATION":97.8173,"RA_OF_ASC_NODE":39.2225,"ARG_OF_PERICENTER":278.2999,"MEAN_ANOMALY":81.5065,"EPHEMERIS_TYPE":0,"CLASSIFICATION_TYPE":"U","NORAD_CAT_ID":41784,"ELEMENT_SET_NO":999,"REV_AT_EPOCH":49988,"BSTAR":0.00023366945,"MEAN_MOTION_DOT":1.32e-5,"MEAN_MOTION_DDOT":0},{"OBJECT_NAME":"HXMT (HUIYAN)","OBJECT_ID":"2017-034A","EPOCH":"2026-02-01T23:08:38.220000","MEAN_MOTION":15.16979691,"ECCENTRICITY":0.00317678,"INCLINATION":43.0124,"RA_OF_ASC_NODE":215.219,"ARG_OF_PERICENTER":6.3895,"MEAN_ANOMALY":353.7352,"EPHEMERIS_TYPE":0,"CLASSIFICATION_TYPE":"U","NORAD_CAT_ID":42758,"ELEMENT_SET_NO":999,"REV_AT_EPOCH":47711,"BSTAR":0.000231023,"MEAN_MOTION_DOT":4.463e-5,"MEAN_MOTION_DDOT":0},{"OBJECT_NAME":"FLYING LAPTOP","OBJECT_ID":"2017-042G","EPOCH":"2026-02-01T23:09:15.155136","MEAN_MOTION":15.00261966,"ECCENTRICITY":0.00151757,"INCLINATION":97.4204,"RA_OF_ASC_NODE":194.2515,"ARG_OF_PERICENTER":220.0248,"MEAN_ANOMALY":139.9859,"EPHEMERIS_TYPE":0,"CLASSIFICATION_TYPE":"U","NORAD_CAT_ID":42831,"ELEMENT_SET_NO":999,"REV_AT_EPOCH":46617,"BSTAR":0.00031906437,"MEAN_MOTION_DOT":3.948e-5,"MEAN_MOTION_DDOT":0},{"OBJECT_NAME":"ZHANGHENG 1-01 (CSES-1)","OBJECT_ID":"2018-015C","EPOCH":"2026-02-01T23:50:58.353216","MEAN_MOTION":15.21020396,"ECCENTRICITY":0.00163687,"INCLINATION":97.6691,"RA_OF_ASC_NODE":196.0745,"ARG_OF_PERICENTER":26.6123,"MEAN_ANOMALY":333.5949,"EPHEMERIS_TYPE":0,"CLASSIFICATION_TYPE":"U","NORAD_CAT_ID":43194,"ELEMENT_SET_NO":999,"REV_AT_EPOCH":44409,"BSTAR":0.00044061981,"MEAN_MOTION_DOT":9.743e-5,"MEAN_MOTION_DDOT":0},{"OBJECT_NAME":"SALSAT","OBJECT_ID":"2020-068K","EPOCH":"2026-02-01T23:28:21.133632","MEAN_MOTION":15.27407493,"ECCENTRICITY":0.00120503,"INCLINATION":97.882,"RA_OF_ASC_NODE":28.0663,"ARG_OF_PERICENTER":61.9502,"MEAN_ANOMALY":298.2953,"EPHEMERIS_TYPE":0,"CLASSIFICATION_TYPE":"U","NORAD_CAT_ID":46495,"ELEMENT_SET_NO":999,"REV_AT_EPOCH":29470,"BSTAR":0.00032406807,"MEAN_MOTION_DOT":8.632e-5,"MEAN_MOTION_DDOT":0},{"OBJECT_NAME":"IXPE","OBJECT_ID":"2021-121A","EPOCH":"2026-02-01T22:00:01.999584","MEAN_MOTION":15.08701296,"ECCENTRICITY":0.00073532,"INCLINATION":0.2286,"RA_OF_ASC_NODE":259.5356,"ARG_OF_PERICENTER":192.1723,"MEAN_ANOMALY":248.4042,"EPHEMERIS_TYPE":0,"CLASSIFICATION_TYPE":"U","NORAD_CAT_ID":49954,"ELEMENT_SET_NO":999,"REV_AT_EPOCH":537,"BSTAR":0.00058350097,"MEAN_MOTION_DOT":0.00010344,"MEAN_MOTION_DDOT":0}]
